[
    {
        "Altitude(m)": 617710.6347508304,
        "Argument of Periapsis(deg)": 0.0,
        "Eccentricity": 0.0,
        "Inclination(deg)": 60.0,
        "Latitude(deg)": -41.10264684950445,
        "Longitude(deg)": 59.966714957151034,
        "Mean Anomaly(deg)": -49.09089999999997,
        "RAAN(deg)": 190.0,
        "Satellite Name": "Test1 855",
        "Satellite Number": 855,
        "Semi-Major Axis(m)": 6980739.136638005,
        "Time(s)": 0
    },
    {
        "Altitude(m)": 617517.9329426005,
        "Argument of Periapsis(deg)": 0.00010418945913296404,
        "Eccentricity": 0.0,
        "Inclination(deg)": 60.0,
        "Latitude(deg)": -40.63685295303746,
        "Longitude(deg)": 60.463507078684515,
        "Mean Anomaly(deg)": -48.470793854538115,
        "RAAN(deg)": 189.99957995086027,
        "Satellite Name": "Test1 855",
        "Satellite Number": 855,
        "Semi-Major Axis(m)": 6980739.136638005,
        "Time(s)": 10
    }
]